{
    "links": {
        "self": "http://www.neowsapp.com/rest/v1/neo/54013533?api_key=iIulBulltgU6a56xZRHN4H3l9WmuAYTsLGpBGhQ2"
    },
    "id": "54013533",
    "neo_reference_id": "54013533",
    "name": "(2020 DC5)",
    "designation": "2020 DC5",
    "nasa_jpl_url": "http://ssd.jpl.nasa.gov/sbdb.cgi?sstr=54013533",
    "absolute_magnitude_h": 23.185,
    "estimated_diameter": {
        "kilometers": {
            "estimated_diameter_min": 0.0613133403,
            "estimated_diameter_max": 0.1371007968
        },
        "meters": {
            "estimated_diameter_min": 61.3133402762,
            "estimated_diameter_max": 137.1007967851
        },
        "miles": {
            "estimated_diameter_min": 0.0380983316,
            "estimated_diameter_max": 0.0851904592
        },
        "feet": {
            "estimated_diameter_min": 201.1592593117,
            "estimated_diameter_max": 449.8057781245
        }
    },
    "is_potentially_hazardous_asteroid": false,
    "close_approach_data": [
        {
            "close_approach_date": "2020-03-22",
            "close_approach_date_full": "2020-Mar-22 09:19",
            "epoch_date_close_approach": 1584868740000,
            "relative_velocity": {
                "kilometers_per_second": "13.4173568872",
                "kilometers_per_hour": "48302.4847938466",
                "miles_per_hour": "30013.285620932"
            },
            "miss_distance": {
                "astronomical": "0.3211380647",
                "lunar": "124.9227071683",
                "kilometers": "48041570.455042189",
                "miles": "29851647.6414686482"
            },
            "orbiting_body": "Earth"
        }
    ],
    "orbital_data": {
        "orbit_id": "2",
        "orbit_determination_date": "2020-03-12 06:07:21",
        "first_observation_date": "2020-02-29",
        "last_observation_date": "2020-03-07",
        "data_arc_in_days": 7,
        "observations_used": 17,
        "orbit_uncertainty": "9",
        "minimum_orbit_intersection": ".315801",
        "jupiter_tisserand_invariant": "3.938",
        "epoch_osculation": "2458913.5",
        "eccentricity": ".3339279236917791",
        "semi_major_axis": "1.766872617103852",
        "inclination": "25.26609336781567",
        "ascending_node_longitude": "165.1909719604003",
        "orbital_period": "857.839988291168",
        "perihelion_distance": "1.176864512646503",
        "perihelion_argument": "64.17510356958147",
        "aphelion_distance": "2.356880721561201",
        "perihelion_time": "2458988.766391204933",
        "mean_anomaly": "328.4138053674189",
        "mean_motion": ".4196586833368846",
        "equinox": "J2000",
        "orbit_class": {
            "orbit_class_type": "AMO",
            "orbit_class_description": "Near-Earth asteroid orbits similar to that of 1221 Amor",
            "orbit_class_range": "1.017 AU < q (perihelion) < 1.3 AU"
        }
    },
    "is_sentry_object": false
}